#cP2023  2 15  0  0  0.00000000      96 ORBIT IGS20 HLM  IGS
## 2249 259200.00000000   900.00000000 59990 0.0000000000000
+   32   G01G02G03G04G05G06G07G08G09G10G11G12G13G14G15G16G17
+        G18G19G20G21G22G23G24G25G26G27G28G29G30G31G32  0  0
+          0  0  0  0  0  0  0  0  0  0  0  0  0  0  0  0  0
+          0  0  0  0  0  0  0  0  0  0  0  0  0  0  0  0  0
+          0  0  0  0  0  0  0  0  0  0  0  0  0  0  0  0  0
++         2  2  2  3  2  2  2  2  3  2  2  2  2  2  2  2  2
++         2  2  2  2  2  2  2  2  2  2  3  2  2  2  3  0  0
++         0  0  0  0  0  0  0  0  0  0  0  0  0  0  0  0  0
++         0  0  0  0  0  0  0  0  0  0  0  0  0  0  0  0  0
++         0  0  0  0  0  0  0  0  0  0  0  0  0  0  0  0  0
%c G  cc GPS ccc cccc cccc cccc cccc ccccc ccccc ccccc ccccc
%c cc cc ccc ccc cccc cccc cccc cccc ccccc ccccc ccccc ccccc
%f  1.2500000  1.025000000  0.00000000000  0.000000000000000
%f  0.0000000  0.000000000  0.00000000000  0.000000000000000
%i    0    0    0    0      0      0      0      0         0
%i    0    0    0    0      0      0      0      0         0
/* RAPID ORBIT COMBINATION FROM WEIGHTED AVERAGE OF:        
/* cod emr esa gfz grg jpl ngs sio usn whu                  
/* REFERENCED TO IGS TIME (IGST) AND TO WEIGHTED MEAN POLE: 
/* PCV:IGS20_2233 OL/AL:FES2014b NONE     Y  ORB:CMB CLK:CMB
*  2023  2 15  7 30  0.00000000
PG01 -14057.451877  22296.450127    321.198612    212.362104  7  5  9  68       
PG02  10093.547658 -24620.766296   2647.923857   -620.724711  4  6  4 118       
PG03 -13581.732386  12655.091569 -19073.421704   -362.893542  7  6  5 106       
PG04  -4466.521634  18872.884112 -18090.084775    -27.133889  6 10  9 115       
PG05  25056.435472  -5541.543586   6914.242506   -115.969316  4  7  3 105       
PG06  11490.723500   9082.014771 -22083.073282    572.575340  8  6  7 106       
PG07  -3574.494902  23171.530788  12424.044870    240.699376  4  8  4  90       
PG08 -12906.952012   8022.934635  21719.540130   -108.572741  2  5  4  68       
PG09   5662.604600  23877.797502 -10175.644211   -217.902840 10  7 10 102       
PG10 -17648.592326 -11425.845329  16592.077791    -24.768730  4  7  5 100       
PG11  18420.962249  -4326.732699 -18614.665504   -104.696311  5  4  4  95       
PG12  15930.314155 -11286.036060 -18241.766352   -340.544696  7  7  2  76       
PG13  15780.166351    446.617546  21214.028438    476.372147  5  6  5 107       
PG14  14795.219277  13349.461845  17626.722996    -26.722796  4  6  7 111       
PG15  11954.822535 -10065.943824  21019.804227     13.606437  3  4  3  99       
PG16 -26308.308017    617.108721   4830.869407   -519.990827     5  7  47       
PG17  12838.883232  23012.128813  -2422.641473    700.142367  5  8  4  77       
PG18   1501.043816 -21772.531914  15040.236819   -141.371307  4  9  6  93       
PG19  16593.041124  16573.116440 -12954.275642    277.938577  5  6  8 105       
PG20  26055.799018   -705.359480  -4452.745462    450.613995  3  7  5  83       
PG21 -16641.112970  17660.717410  10341.064576    154.013153  2  6  5  68       
PG22 -17293.263768 -13619.482168 -14546.919783    427.387165  6  8  6  84       
PG23  -5575.741466 -14590.951780  21504.962984      6.234581  4  8  4  92       
PG24  14536.438203 -21274.398141   5100.573214    -74.439188  5  3  4 109       
PG25   5227.557122 -15182.453743 -21431.493090    420.249215  6  2  2  98       
PG26 -24794.289807  -5177.659805  -8660.478071    241.508883  4  7  6 106       
PG27 -17599.948921  -4222.588563  19345.876537    101.994990  4  7  5  92       
PG28 -11041.400808 -11065.622813 -21505.509395     13.081632  7 10  6  50       
PG29  -1291.602366 -23254.318374 -12741.371310   -586.200352  7  8  4  81       
PG30   6959.605930  16436.786661  19685.558739   -530.236047  6  5  5 107       
PG31 -13609.839468  -7334.384537 -21774.345752   -209.279242  5  8  6  94       
PG32 -15919.159157 -20734.426293  -5114.638231   -396.659999  7  8  7  85       
*  2023  2 15  7 45  0.00000000
PG01 -14111.861113  21987.677781   3244.742661    212.358228  7  5  9  58       
PG02  10321.797673 -24595.375784   -202.713359   -620.722428  4  5  4 113       
PG03 -15651.054700  12571.896087 -17454.254952   -362.889416  7  5  5 105       
PG04  -5627.996426  17050.955906 -19527.497954    -27.126516  6  9  9 119       
PG05  25719.843164  -5351.787979   4151.956130   -115.970368  4  7  4  91       
PG06  10232.299201  11257.681493 -21689.754671    572.579329  8  6  6 110       
PG07  -4412.738263  24125.199937   9974.219188    240.693150  4  9  5  88       
PG08 -14245.883610   5924.220486  21591.022336   -108.575089  2  6  4  72       
PG09   4776.524164  22905.286412 -12599.412382   -217.896517 10  8 11 115       
PG10 -15697.233804 -11571.562099  18348.975354    -24.769358  4  7  5  91       
PG11  17351.396227  -2391.285263 -19946.176825   -104.705498  5  4  5  91       
PG12  17860.295950 -11039.169711 -16485.388011   -340.548923  7  7  2  78       
PG13  16670.718396   2686.495384  20374.609882    476.377436  6  6  5 113       
PG14  12693.335255  13461.089024  19107.080815    -26.714707  4  6  7 103       
PG15  13526.661583  -8114.594523  20937.304149     13.609518  3  5  3 101       
PG16 -26712.870164    382.692578   2027.468477   -519.989100     5  7  63       
PG17  12716.144696  23255.573842    466.265769    700.144462  5  9  4  70       
PG18   2454.197515 -23065.000287  12811.321438   -141.385487  4  9  6  92       
PG19  16997.047157  17819.736604 -10526.260823    277.943031  6  6  7 102       
PG20  25446.837130   -286.936390  -7186.215513    450.611591  3  6  5  79       
PG21 -16355.959125  16395.184886  12803.708097    154.013263  3  7  5  88       
PG22 -17823.123530 -15138.324936 -12315.729697    427.394191  6  8  6  79       
PG23  -3102.080225 -14731.034532  21892.366541      6.236067  5  7  4  97       
PG24  14536.916613 -20408.913670   7791.873054    -74.453641  5  3  4 106       
PG25   7581.655030 -15170.945276 -20688.490789    420.252063  6  2  2  95       
PG26 -23707.695135  -5534.353051 -11128.267949    241.509169  5  7  6  96       
PG27 -18627.818678  -6123.532752  17872.664758    101.986921  3  7  5  87       
PG28  -9895.661360 -13194.005508 -20852.329545     13.095472  8 10  6  60       
PG29   -436.608527 -21916.595073 -14988.108814   -586.202347  7  7  4  94       
PG30   5746.897932  18252.179871  18407.217649   -530.234858  7  5  5  97       
PG31 -12351.009618  -9440.201674 -21672.447927   -209.280309  6  8  6 108       
PG32 -15944.156382 -21236.560436  -2314.807422   -396.670409  7  8  6  93       
*  2023  2 15  8  0  0.00000000
PG01 -14037.310048  21383.158682   6110.919768    212.354417  6  5  9  79       
PG02  10441.187554 -24280.209630  -3049.845094   -620.719935  3  4  4 109       
PG03 -17523.820750  12586.285097 -15536.139429   -362.885278  7  5  5 104       
PG04  -6959.646531  15171.400340 -20627.670235    -27.119085  6  8  8 113       
PG05  26077.564079  -5160.309748   1318.481156   -115.972008  5  6  4 102       
PG06   9126.818672  13441.720985 -20920.395373    572.583357  8  6  5  97       
PG07  -5082.051953  24862.039722   7351.140684    240.686869  5  9  6  82       
PG08 -15669.047970   3930.171587  21090.023823   -108.576414  3  6  5  94       
PG09   3690.081939  21766.913726 -14806.703734   -217.890175 10  9 11 109       
PG10 -13576.684320 -11840.095513  19797.693861    -24.770888  4  7  5 104       
PG11  16322.542130   -286.939177 -20933.882591   -104.714693  6  4  5  94       
PG12  19589.827365 -10892.977738 -14449.596040   -340.552967  7  7  3  76       
PG13  17626.730203   4769.791647  19180.701039    476.383433  6  6  6 105       
PG14  10450.348814  13685.226010  20260.005265    -26.706579  4  6  7 104       
PG15  15164.248224  -6263.674834  20480.128650     13.612613  3  6  3 115       
PG16 -26812.812426    176.633330   -809.960474   -519.987860  2  6  7  84       
PG17  12441.488943  23222.125157   3347.144708    700.146329  5  9  3  79       
PG18   3217.793082 -24169.294421  10360.377865   -141.399788  4  8  6  92       
PG19  17334.492258  18794.746344  -7921.535045    277.947596  7  7  7 100       
PG20  24564.721533    233.262796  -9794.367448    450.609932  4  6  5  92       
PG21 -16039.320750  14874.913914  15043.617551    154.012899  3  7  4  91       
PG22 -18300.145812 -16391.419436  -9869.391315    427.401087  6  8  7  51       
PG23   -615.730166 -15006.947054  21903.445436      6.237470  5  7  4 103       
PG24  14472.409446 -19262.359195  10344.094661    -74.468104  5  3  4 111       
PG25   9834.637743 -15271.693603 -19597.077559    420.254935  6  2  3  84       
PG26 -22376.764911  -5980.575493 -13408.943648    241.509462  6  7  7 110       
PG27 -19649.654198  -7810.300871  16090.883226    101.978851  3  7  6 110       
PG28  -8900.362412 -15293.224092 -19841.392507     13.109320  8 10  7  77       
PG29    610.302099 -20420.304997 -16976.767079   -586.204357  7  7  4  69       
PG30   4692.712257  19980.300033  16811.832403   -530.233683  7  5  4  94       
PG31 -11214.459583 -11583.419059 -21202.271419   -209.281258  7  8  6  94       
PG32 -15814.602846 -21474.912040    524.455533   -396.680856  7  8  5  97       
EOF
